OBJECT_NAME,OBJECT_ID,EPOCH,MEAN_MOTION,ECCENTRICITY,INCLINATION,RA_OF_ASC_NODE,ARG_OF_PERICENTER,MEAN_ANOMALY,EPHEMERIS_TYPE,CLASSIFICATION_TYPE,NORAD_CAT_ID,ELEMENT_SET_NO,REV_AT_EPOCH,BSTAR,MEAN_MOTION_DOT,MEAN_MOTION_DDOT
STARLINK-5310,2023-010D,2026-05-21T05:50:55.299840,14.98328046,.0003442,69.9992,221.5284,266.4002,93.6764,0,U,55272,999,18365,.7328471E-4,.781E-5,0
STARLINK-5291,2023-010E,2026-05-20T22:50:16.994112,14.98341578,.00039324,69.9986,222.1142,269.3208,90.7501,0,U,55273,999,18361,.53839011E-4,.55E-5,0
STARLINK-5236,2023-010F,2026-05-21T05:56:35.489472,14.98330852,.0003604,69.9994,201.6720,269.7403,90.3343,0,U,55274,999,18414,.17451217E-4,.115E-5,0
STARLINK-5260,2023-010G,2026-05-21T05:44:48.435936,14.98333288,.00034655,70.0000,201.6445,268.6025,91.4737,0,U,55275,999,18414,.88497589E-4,.963E-5,0
STARLINK-5261,2023-010H,2026-05-21T05:44:34.152288,14.98329506,.00036458,69.9993,201.6423,267.8208,92.2534,0,U,55276,999,18413,.37082E-5,-.49E-6,0
STARLINK-5299,2023-010J,2026-05-21T05:56:54.797280,14.98330626,.00035563,69.9991,221.5391,269.4070,90.6681,0,U,55277,999,18365,-.2321856E-5,-.121E-5,0
STARLINK-5289,2023-010K,2026-05-21T05:32:52.211904,14.98330573,.00037144,69.9997,221.4805,271.3328,88.7406,0,U,55278,999,18364,-.4473051E-5,-.146E-5,0
STARLINK-5331,2023-010M,2026-05-21T06:26:57.804576,14.98476087,.00038964,70.0063,221.6118,255.5465,104.5262,0,U,55280,999,18364,-.26444401E-2,-.31625E-3,0
STARLINK-5298,2023-010N,2026-05-21T05:44:53.549952,14.98331154,.00034105,69.9995,221.5099,267.3472,92.7297,0,U,55281,999,18364,-.46973E-5,-.149E-5,0
STARLINK-5330,2023-010P,2026-05-21T06:00:02.000160,14.98336442,.00036853,70.0007,221.3307,267.2620,283.6739,0,U,55282,999,576,-.301713E-3,-.3692E-4,0
STARLINK-5317,2023-010Q,2026-05-21T05:38:54.061152,14.98318798,.00033179,69.9992,221.4951,264.8684,95.2096,0,U,55283,999,18364,.98879085E-4,.1087E-4,0
STARLINK-5337,2023-010R,2026-05-20T22:44:23.315712,14.98780624,.00099752,69.9926,222.0819,272.2793,87.7225,0,U,55284,999,18359,.17323891E-1,.215739E-2,0
STARLINK-5332,2023-010S,2026-05-21T06:08:31.214112,14.98167907,.00049718,69.9988,181.4115,255.0548,105.0061,0,U,55285,999,18551,.19379409E-2,.23013E-3,0
STARLINK-5338,2023-010T,2026-05-21T05:32:32.931744,14.98328853,.00036673,69.9992,201.6134,268.6020,91.4719,0,U,55286,999,18413,.16331966E-4,.102E-5,0
STARLINK-5341,2023-010U,2026-05-21T05:44:14.781408,14.98324106,.00038089,69.9988,181.6790,267.5263,92.5460,0,U,55287,999,18462,-.31870913E-3,-.3893E-4,0
STARLINK-5311,2023-010V,2026-05-21T05:14:39.135264,14.98885122,.00068653,69.9986,201.5672,248.8584,111.1842,0,U,55288,999,18413,-.92784282E-2,-.110708E-2,0
STARLINK-5320,2023-010W,2026-05-21T05:38:33.618912,14.98327005,.00035039,69.9990,201.6255,266.9774,93.0985,0,U,55289,999,18413,.979158E-5,.24E-6,0
STARLINK-5266,2023-010X,2026-05-21T05:26:32.293824,14.98329737,.00035501,69.9990,201.5970,267.9369,92.1384,0,U,55290,999,18413,-.12740451E-4,-.245E-5,0
STARLINK-5327,2023-010Y,2026-05-21T05:50:34.963872,14.98336191,.00036142,69.9991,201.6541,272.3719,87.7027,0,U,55291,999,18413,-.43618405E-4,-.614E-5,0
STARLINK-5325,2023-010Z,2026-05-21T05:08:29.489280,14.98356383,.00039346,69.9961,201.5508,270.5637,89.5071,0,U,55292,999,18413,-.23732048E-3,-.2926E-4,0
STARLINK-5287,2023-010AA,2026-05-21T05:14:35.810592,14.97768356,.00055838,69.9985,201.5676,300.2631,59.7975,0,U,55293,999,18413,.9167935E-2,.109443E-2,0
STARLINK-5286,2023-010AB,2026-05-20T22:56:18.725856,14.98330255,.00033819,69.9994,222.1214,269.5499,90.5272,0,U,55294,999,18360,-.9223899E-5,-.203E-5,0
STARLINK-5293,2023-010AC,2026-05-21T06:20:57.331680,14.98331021,.00036083,70.0000,221.5984,268.0757,91.9989,0,U,55295,999,18365,-.2658499E-4,-.41E-5,0
STARLINK-5285,2023-010AD,2026-05-21T06:26:35.973888,14.98332441,.00033919,69.9988,201.3387,262.7397,97.3376,0,U,55296,999,18502,-.24990913E-3,-.3074E-4,0
STARLINK-5284,2023-010AE,2026-05-21T06:38:37.735296,14.98330795,.00035469,69.9995,201.3705,266.7221,93.3533,0,U,55297,999,18414,-.173311E-6,-.95E-6,0
STARLINK-5270,2023-010AG,2026-05-21T06:20:35.706624,14.98333808,.00035781,69.9989,201.3258,269.6630,90.4119,0,U,55299,999,18502,.17962591E-4,.121E-5,0
STARLINK-5308,2023-010AH,2026-05-21T06:14:22.500096,14.98395066,.00036999,70.0017,201.3132,268.2105,91.8631,0,U,55300,999,18414,.44474748E-4,.438E-5,0
STARLINK-5321,2023-010AK,2026-05-21T06:32:37.037760,14.98331744,.00033112,69.9992,201.3525,267.1882,92.8898,0,U,55302,999,18414,.13795456E-4,.72E-6,0
STARLINK-5322,2023-010AL,2026-05-21T06:38:56.585184,14.98329539,.00030584,70.0002,221.2375,265.4204,94.6606,0,U,55303,999,18365,-.13601492E-3,-.1716E-4,0
STARLINK-5318,2023-010AM,2026-05-21T06:08:34.444608,14.98332741,.00036037,69.9995,201.2953,267.9423,92.1323,0,U,55304,999,18414,.30446187E-4,.27E-5,0
STARLINK-5316,2023-010AN,2026-05-21T06:02:36.409056,14.98332990,.00037117,69.9995,201.6864,271.3069,88.7665,0,U,55305,999,18414,.45529602E-4,.45E-5,0
STARLINK-5295,2023-010AP,2026-05-21T05:20:12.746400,14.98330430,.00033076,69.9988,181.7083,271.3205,88.7576,0,U,55306,999,18463,.37580315E-4,.355E-5,0
STARLINK-5288,2023-010AQ,2026-05-21T05:26:14.189568,14.98322258,.00037923,69.9986,181.7233,266.4834,93.5891,0,U,55307,999,18463,.33766192E-4,.31E-5,0
STARLINK-5315,2023-010AS,2026-05-21T05:50:13.224768,14.98329396,.00035619,69.9989,181.3810,268.5845,91.4906,0,U,55309,999,18464,.20870705E-4,.156E-5,0
STARLINK-5309,2023-010AT,2026-05-21T05:08:10.929696,14.98330530,.0003515,69.9989,181.6778,268.3925,91.6831,0,U,55310,999,18463,-.12197866E-4,-.239E-5,0
STARLINK-5312,2023-010AU,2026-05-21T05:14:13.392384,14.98317825,.00037027,69.9986,181.6931,269.7559,90.3175,0,U,55311,999,18550,.13537506E-3,.1522E-4,0
STARLINK-5296,2023-010AV,2026-05-21T06:08:14.307360,14.98330488,.00035413,69.9989,181.3100,267.1796,92.8958,0,U,55312,999,18550,-.10374022E-3,-.1331E-4,0
STARLINK-5313,2023-010AW,2026-05-21T06:32:17.786112,14.98329828,.0003648,69.9989,181.4807,268.1292,91.9450,0,U,55313,999,18551,-.10724808E-4,-.221E-5,0
STARLINK-5305,2023-010AX,2026-05-21T06:38:18.268512,14.98324495,.00031581,69.9993,181.4935,267.3268,92.7530,0,U,55314,999,18551,-.11533444E-3,-.1469E-4,0
STARLINK-4623,2023-010AY,2026-05-21T05:20:31.602336,14.98331334,.00038703,69.9991,201.5820,269.3985,90.6730,0,U,55315,999,18412,-.8782999E-5,-.198E-5,0
STARLINK-5257,2023-010AZ,2026-05-21T05:56:12.235776,14.98340607,.00037078,69.9989,181.4097,268.8940,91.1794,0,U,55316,999,18551,.18851815E-3,.2158E-4,0
STARLINK-5265,2023-010BA,2026-05-21T06:26:17.136960,14.98330783,.00038205,69.9989,181.4934,268.3046,91.7676,0,U,55317,999,18551,.2782884E-5,-.6E-6,0
STARLINK-5180,2023-010BB,2026-05-21T06:20:16.267488,14.98330948,.00032651,69.9990,181.4511,269.5911,90.4874,0,U,55318,999,18551,-.11213567E-3,-.1431E-4,0
STARLINK-5196,2023-010BC,2026-05-21T06:14:15.818784,14.98329622,.00036013,69.9988,181.4373,269.0705,91.0041,0,U,55319,999,18551,.16734761E-4,.107E-5,0
HAWK-6B,2023-011A,2026-05-21T07:04:09.035328,15.22665650,.00040741,40.4973,148.8960,223.3010,136.7480,0,U,55324,999,18374,.19409815E-3,.4422E-4,0
HAWK-6C,2023-011C,2026-05-21T05:28:45.717024,15.22660358,.0004028,40.4966,146.1237,214.0760,145.9791,0,U,55326,999,18374,.12859946E-3,.2863E-4,0
HAWK-6A,2023-011D,2026-05-21T02:19:55.717824,15.22661321,.00037258,40.4975,148.5102,212.8491,147.2087,0,U,55327,999,18372,.13698048E-3,.3062E-4,0
STARLINK-5492,2023-013A,2026-05-21T00:21:21.119328,15.27576236,.00012477,43.0010,255.0405,268.3914,91.6794,0,U,55331,999,18381,.19954776E-4,.287E-5,0
STARLINK-5491,2023-013B,2026-05-20T13:48:52.805088,15.27576720,.00011605,43.0013,243.0345,263.8058,96.2661,0,U,55332,999,18283,.34808105E-4,.696E-5,0
STARLINK-5493,2023-013C,2026-05-20T00:56:19.827168,15.26738384,.00012137,43.0023,260.6181,266.2329,93.8383,0,U,55333,999,18258,.59731119E-4,.1343E-4,0
STARLINK-5652,2023-013D,2026-05-20T16:36:05.633568,15.27575309,.00013397,43.0018,256.8155,281.6949,78.3753,0,U,55334,999,18268,.18892472E-4,.258E-5,0
STARLINK-5660,2023-013E,2026-05-21T00:38:00.102912,15.27574124,.00011534,43.0011,255.1272,276.0458,84.0262,0,U,55335,999,18273,.33899685E-4,.671E-5,0
STARLINK-5655,2023-013F,2026-05-20T13:22:56.998560,15.27581296,.00009014,42.9986,242.8114,238.8059,121.2705,0,U,55336,999,18283,.41244945E-4,.873E-5,0
STARLINK-5667,2023-013G,2026-05-20T14:05:31.425792,15.27576494,.00010185,42.9980,243.0830,277.5365,82.5371,0,U,55337,999,18283,.23814911E-4,.393E-5,0
STARLINK-5658,2023-013H,2026-05-20T09:02:00.822624,15.27568048,.00007373,42.9970,258.8454,235.0524,125.0259,0,U,55338,999,18263,-.32393474E-4,-.1153E-4,0
STARLINK-5671,2023-013J,2026-05-21T00:35:26.304000,15.27577058,.00011856,43.0038,258.5188,273.5956,86.4760,0,U,55339,999,18269,-.26406E-5,-.335E-5,0
STARLINK-5675,2023-013K,2026-05-20T14:21:15.095232,15.27580197,.00016723,43.0027,257.0753,272.4775,87.5885,0,U,55340,999,18267,.42126598E-4,.897E-5,0
STARLINK-5670,2023-013L,2026-05-21T00:47:15.150336,15.27576171,.00016102,43.0049,255.1733,273.4021,86.6647,0,U,55341,999,18273,.14336059E-4,.132E-5,0
STARLINK-5657,2023-013M,2026-05-20T07:37:06.319200,15.27567879,.00019038,43.0092,259.2667,275.3992,84.6643,0,U,55342,999,18262,.63046088E-4,.1472E-4,0
STARLINK-5661,2023-013N,2026-05-20T14:06:23.742720,15.27290443,.00024957,43.0008,256.9943,262.4084,97.6484,0,U,55343,999,18267,.1838622E-2,.50234E-3,0
STARLINK-5653,2023-013Q,2026-05-20T18:36:53.703648,15.27578166,.00011945,43.0007,241.9442,272.7343,87.3372,0,U,55345,999,18286,.5823996E-5,-.102E-5,0
STARLINK-5631,2023-013R,2026-05-20T15:46:09.055200,15.27582896,.00017603,43.0023,256.6490,269.1931,90.8719,0,U,55346,999,18268,.20607184E-4,.305E-5,0
STARLINK-5663,2023-013S,2026-05-20T14:10:09.043680,15.27577530,.00013278,43.0039,257.0147,258.5167,101.5536,0,U,55347,999,18267,.19148787E-4,.265E-5,0
STARLINK-5609,2023-013T,2026-05-20T14:26:48.205248,15.27576000,.00015231,43.0022,257.0925,270.2626,89.8051,0,U,55348,999,18267,.8269169E-5,-.35E-6,0
